METAR EGLL 011150Z 24010KT 8000 -DZ BKN012 07/05 Q1008
