METAR KJFK 011151Z 31015G25KT 10SM SCT025 05/M02 A2992
