SPECI KLAX 011210Z 26008KT 5SM BR OVC010 14/12 A3000
