METAR UUEE 011130Z 15005MPS 4000 -SN SCT010 BKN020 M02/M05 Q1000
