METAR VHHH 011200Z 09012KT 8000 SHRA SCT015 BKN030 18/16 Q1012
