METAR ZGGG 011200Z 12006MPS 5000 HZ BKN030 22/18 Q1005
