METAR KDEN 011200Z 21005KT 10SM FEW020 05/M02 A2995
