METAR ZBAA 011200Z 02005MPS 6000 HZ SCT020 02/M03 Q1015 A2992
