METAR EGLL 011150Z 18010KT 9999 180V240 -RA BKN012 07/05 Q1008
