METAR RJTT 011200Z 04005KT 1200 R34L/0600U OVC005 12/11 Q1006
