METAR ZSPD 011200Z 02006MPS 2000 R16/0800V1200D OVC008 03/M01 Q1012
