METAR KSFO 011156Z 28012KT 10SM FEW015 BKN030 12/08 A3012 RMK AO2 SLP132 T01220083
