[
  "A1234/24 NOTAMN Q) ZSHA/QMRLC/IV/NBO/A/000/999/3112N12130E005 A) ZSPD B) 2402010000 C) 2402012359 E) RWY 17L/35R CLSD",
  "B5678/24 NOTAMN Q) ZBAA/QXXXX/IV/NBO/A/000/999/4004N11635E005 A) ZBAA B) 2402010600 C) 2402011800 E) TWY B CLSD",
  "C0001/24 NOTAMR C9999/23 Q) RJTT/QMRLC/IV/NBO/A/000/999/3533N13946E005 A) RJTT B) 2402010000 C) 2402011200 E) RWY 04/22 CLSD",
  "D0100/24 NOTAMN Q) EGLL/QXXXX/IV/NBO/A/000/999/5129N00028W005 A) EGLL B) 2402010900 C) 2402011700 E) AD CLSD FOR MAINT",
  "E0101/24 NOTAMN Q) KSFO/QXXXX/IV/NBO/A/000/999/3746N12222W005 A) KSFO B) 2402010000 C) 2402012359 E) ILS RWY 28R U/S",
  "F0102/24 NOTAMN Q) KJFK/QXXXX/IV/NBO/A/000/999/4041N07346W005 A) KJFK B) 2402010100 C) 2402010600 E) APRON EAST CLSD",
  "G0103/24 NOTAMN Q) OMDB/QXXXX/IV/NBO/A/000/999/2515N05521E005 A) OMDB B) 2402010000 C) 2402011200 E) RWY 12/30 CLSD",
  "H0104/24 NOTAMN Q) ZGGG/QXXXX/IV/NBO/A/000/999/2308N11318E005 A) ZGGG B) 2402010000 C) 2402012359 E) TWY D CLSD",
  "I0105/24 NOTAMN Q) UUEE/QXXXX/IV/NBO/A/000/999/5558N03725E005 A) UUEE B) 2402010600 C) 2402011200 E) AD CLSD",
  "J0106/24 NOTAMN Q) ZBAA/QXXXX/IV/NBO/A/000/999/4004N11635E005 A) ZBAA B) 2402010000 C) 2402012359 E) WORK IN PROGRESS",
  "METAR EGLL 011150Z 18010KT 9999 180V240 -RA BKN012 07/05 Q1008",
  "METAR EGLL 011150Z 24010KT 8000 -DZ BKN012 07/05 Q1008",
  "METAR KDEN 011200Z 21005KT 10SM FEW020 05/M02 A2995",
  "METAR KJFK 011151Z 31015G25KT 10SM SCT025 05/M02 A2992",
  "METAR KSFO 011156Z 28012KT 10SM FEW015 BKN030 12/08 A3012",
  "METAR KSFO 011156Z 28012KT 10SM FEW015 BKN030 12/08 A3012 RMK AO2 SLP132 T01220083",
  "METAR OMDB 011200Z 00000KT 9999 FEW020 25/16 Q1010 NOSIG",
  "METAR RJTT 011200Z 04005KT 1200 R34L/0600U OVC005 12/11 Q1006",
  "METAR RJTT 011200Z VRB03KT CAVOK 15/10 Q1017",
  "METAR UUEE 011130Z 15005MPS 4000 -SN SCT010 BKN020 M02/M05 Q1000",
  "METAR VHHH 011200Z 09012KT 8000 SHRA SCT015 BKN030 18/16 Q1012",
  "METAR ZBAA 011200Z 02005MPS 6000 HZ SCT020 02/M03 Q1015 A2992",
  "METAR ZBAA 011200Z 02005MPS 6000 HZ SCT020 BKN050 02/M03 Q1015",
  "METAR ZGGG 011200Z 12006MPS 5000 HZ BKN030 22/18 Q1005",
  "METAR ZSPD 011200Z 02006MPS 2000 R16/0800V1200D OVC008 03/M01 Q1012",
  "SPECI KLAX 011210Z 26008KT 5SM BR OVC010 14/12 A3000",
  "TAF AMD ZSPD 011200Z 0112/0218 09008KT 6000 -RA BKN020 TEMPO 0112/0116 3000 RA SCT008",
  "TAF EGLL 011110Z 0112/0218 24010KT 8000 -DZ BKN012 TEMPO 0112/0115 3000 DZ BKN006",
  "TAF KJFK 011130Z 0112/0218 31015KT 9999 SCT025 BECMG 0116/0118 20012KT",
  "TAF KLAX 011130Z 0112/0218 26008KT 6000 BR OVC010",
  "TAF KSFO 011130Z 0112/0218 28012KT 9999 FEW015 BKN030",
  "TAF RJTT 011100Z 0112/0218 VRB03KT CAVOK",
  "TAF UUEE 011100Z 0112/0218 15005MPS 9999 BKN020 TEMPO 0112/0114 4000 -SN SCT010",
  "TAF VIDP 011130Z 0112/0218 04004KT 4000 FU BKN012",
  "TAF ZBAA 011130Z 0112/0218 06005MPS 9999 FEW020 SCT040 TX02/0212Z TNM05/0118Z",
  "TAF ZGGG 011200Z 0112/0218 12006MPS 5000 HZ BKN030 TEMPO 0115/0118 2000 BR SCT005"
]
