TAF ZBAA 011130Z 0112/0218 06005MPS 9999 FEW020 SCT040 TX02/0212Z TNM05/0118Z
