TAF AMD ZSPD 011200Z 0112/0218 09008KT 6000 -RA BKN020 TEMPO 0112/0116 3000 RA SCT008
