TAF EGLL 011110Z 0112/0218 24010KT 8000 -DZ BKN012 TEMPO 0112/0115 3000 DZ BKN006
