TAF RJTT 011100Z 0112/0218 VRB03KT CAVOK
