TAF ZGGG 011200Z 0112/0218 12006MPS 5000 HZ BKN030 TEMPO 0115/0118 2000 BR SCT005
