TAF KJFK 011130Z 0112/0218 31015KT 9999 SCT025 BECMG 0116/0118 20012KT
