TAF UUEE 011100Z 0112/0218 15005MPS 9999 BKN020 TEMPO 0112/0114 4000 -SN SCT010
